{
    "links": {
        "self": "http://www.neowsapp.com/rest/v1/neo/3721238?api_key=iIulBulltgU6a56xZRHN4H3l9WmuAYTsLGpBGhQ2"
    },
    "id": "3721238",
    "neo_reference_id": "3721238",
    "name": "(2015 LT24)",
    "designation": "2015 LT24",
    "nasa_jpl_url": "http://ssd.jpl.nasa.gov/sbdb.cgi?sstr=3721238",
    "absolute_magnitude_h": 22.4,
    "estimated_diameter": {
        "kilometers": {
            "estimated_diameter_min": 0.0880146521,
            "estimated_diameter_max": 0.1968067451
        },
        "meters": {
            "estimated_diameter_min": 88.0146520901,
            "estimated_diameter_max": 196.8067450894
        },
        "miles": {
            "estimated_diameter_min": 0.0546897524,
            "estimated_diameter_max": 0.122290004
        },
        "feet": {
            "estimated_diameter_min": 288.7619911632,
            "estimated_diameter_max": 645.6914415591
        }
    },
    "is_potentially_hazardous_asteroid": false,
    "close_approach_data": [
        {
            "close_approach_date": "2015-06-06",
            "close_approach_date_full": "2015-Jun-06 06:37",
            "epoch_date_close_approach": 1433572620000,
            "relative_velocity": {
                "kilometers_per_second": "21.0628478917",
                "kilometers_per_hour": "75826.2524102503",
                "miles_per_hour": "47115.4844490247"
            },
            "miss_distance": {
                "astronomical": "0.1661052855",
                "lunar": "64.6149560595",
                "kilometers": "24848996.906541885",
                "miles": "15440450.694512613"
            },
            "orbiting_body": "Earth"
        }
    ],
    "orbital_data": {
        "orbit_id": "8",
        "orbit_determination_date": "2017-04-06 08:33:06",
        "first_observation_date": "2015-06-15",
        "last_observation_date": "2015-06-26",
        "data_arc_in_days": 11,
        "observations_used": 60,
        "orbit_uncertainty": "8",
        "minimum_orbit_intersection": ".156126",
        "jupiter_tisserand_invariant": "4.183",
        "epoch_osculation": "2457191.5",
        "eccentricity": ".6980111554573548",
        "semi_major_axis": "1.516705892958084",
        "inclination": "13.38001874236619",
        "ascending_node_longitude": "117.3027177120337",
        "orbital_period": "682.2609083272187",
        "perihelion_distance": ".4580282601254326",
        "perihelion_argument": "28.51162294139011",
        "aphelion_distance": "2.575383525790734",
        "perihelion_time": "2457127.120938413756",
        "mean_anomaly": "33.97008664599056",
        "mean_motion": ".5276573750688068",
        "equinox": "J2000",
        "orbit_class": {
            "orbit_class_type": "APO",
            "orbit_class_description": "Near-Earth asteroid orbits which cross the Earth’s orbit similar to that of 1862 Apollo",
            "orbit_class_range": "a (semi-major axis) > 1.0 AU; q (perihelion) < 1.017 AU"
        }
    },
    "is_sentry_object": false
}